{"type": "FeatureCollection", "features": [ {"type": "Feature", "properties": {"norad_id": 42741, "name": "EUTELSAT 172B", "group": "eutelsat", "lat": 0.0012878104836758536, "lon": 151.7576779988808, "alt_km": 35785.97182534551, "timestamp": "2025-12-03T17:47:50.383768+00:00", "meta": {"OBJECT_NAME": "EUTELSAT 172B", "OBJECT_ID": "2017-029B", "EPOCH": "2025-12-03T11:53:38.524992", "MEAN_MOTION": 1.00271157, "ECCENTRICITY": 1.91e-05, "INCLINATION": 0.0204, "RA_OF_ASC_NODE": 138.9555, "ARG_OF_PERICENTER": 82.4231, "MEAN_ANOMALY": 201.6143, "EPHEMERIS_TYPE": 0, "CLASSIFICATION_TYPE": "U", "NORAD_CAT_ID": 42741, "ELEMENT_SET_NO": 999, "REV_AT_EPOCH": 3176, "BSTAR": 0, "MEAN_MOTION_DOT": 1.3e-07, "MEAN_MOTION_DDOT": 0}, "tle": {"line1": "1 42741U 17029B   25337.49558478  .00000013  00000+0  00000+0 0  9999", "line2": "2 42741   0.0204 138.9555 0000191  82.4231 201.6143  1.00271157 31761"}}, "geometry": {"type": "Point", "coordinates": [151.7576779988808, 0.0012878104836758536]}}, {"type": "Feature", "properties": {"norad_id": 44334, "name": "EUTELSAT 7C", "group": "eutelsat", "lat": 0.03733704606187025, "lon": -13.215852761434519, "alt_km": 35791.94300884235, "timestamp": "2025-12-03T17:47:50.383780+00:00", "meta": {"OBJECT_NAME": "EUTELSAT 7C", "OBJECT_ID": "2019-034B", "EPOCH": "2025-12-03T06:56:26.020320", "MEAN_MOTION": 1.00269069, "ECCENTRICITY": 0.0003399, "INCLINATION": 0.0762, "RA_OF_ASC_NODE": 181.9926, "ARG_OF_PERICENTER": 53.7303, "MEAN_ANOMALY": 307.756, "EPHEMERIS_TYPE": 0, "CLASSIFICATION_TYPE": "U", "NORAD_CAT_ID": 44334, "ELEMENT_SET_NO": 999, "REV_AT_EPOCH": 487, "BSTAR": 0, "MEAN_MOTION_DOT": 6.7e-07, "MEAN_MOTION_DDOT": 0}, "tle": {"line1": "1 44334U 19034B   25337.28919005  .00000067  00000+0  00000+0 0  9990", "line2": "2 44334   0.0762 181.9926 0003399  53.7303 307.7560  1.00269069  4876"}}, "geometry": {"type": "Point", "coordinates": [-13.215852761434519, 0.03733704606187025]}}, {"type": "Feature", "properties": {"norad_id": 44624, "name": "EUTELSAT 5 WEST B", "group": "eutelsat", "lat": 0.014952729933994742, "lon": -25.179270866503675, "alt_km": 35783.44779459583, "timestamp": "2025-12-03T17:47:50.383792+00:00", "meta": {"OBJECT_NAME": "EUTELSAT 5 WEST B", "OBJECT_ID": "2019-067A", "EPOCH": "2025-12-03T06:52:56.355168", "MEAN_MOTION": 1.00272745, "ECCENTRICITY": 0.0003689, "INCLINATION": 0.0714, "RA_OF_ASC_NODE": 328.1071, "ARG_OF_PERICENTER": 285.389, "MEAN_ANOMALY": 277.1323, "EPHEMERIS_TYPE": 0, "CLASSIFICATION_TYPE": "U", "NORAD_CAT_ID": 44624, "ELEMENT_SET_NO": 999, "REV_AT_EPOCH": 2247, "BSTAR": 0, "MEAN_MOTION_DOT": -2.3e-07, "MEAN_MOTION_DDOT": 0}, "tle": {"line1": "1 44624U 19067A   25337.28676337 -.00000023  00000+0  00000+0 0  9999", "line2": "2 44624   0.0714 328.1071 0003689 285.3890 277.1323  1.00272745 22475"}}, "geometry": {"type": "Point", "coordinates": [-25.179270866503675, 0.014952729933994742]}}, {"type": "Feature", "properties": {"norad_id": 45027, "name": "EUTELSAT KONNECT", "group": "eutelsat", "lat": -0.04795135831951785, "lon": -13.035221488288084, "alt_km": 35783.519862379355, "timestamp": "2025-12-03T17:47:50.383803+00:00", "meta": {"OBJECT_NAME": "EUTELSAT KONNECT", "OBJECT_ID": "2020-005B", "EPOCH": "2025-12-03T08:39:12.545568", "MEAN_MOTION": 1.00268225, "ECCENTRICITY": 0.0001735, "INCLINATION": 0.068, "RA_OF_ASC_NODE": 99.5076, "ARG_OF_PERICENTER": 186.6252, "MEAN_ANOMALY": 283.3105, "EPHEMERIS_TYPE": 0, "CLASSIFICATION_TYPE": "U", "NORAD_CAT_ID": 45027, "ELEMENT_SET_NO": 999, "REV_AT_EPOCH": 2236, "BSTAR": 0, "MEAN_MOTION_DOT": 6.8e-07, "MEAN_MOTION_DDOT": 0}, "tle": {"line1": "1 45027U 20005B   25337.36056187  .00000068  00000+0  00000+0 0  9993", "line2": "2 45027   0.0680  99.5076 0001735 186.6252 283.3105  1.00268225 22367"}}, "geometry": {"type": "Point", "coordinates": [-13.035221488288084, -0.04795135831951785]}}, {"type": "Feature", "properties": {"norad_id": 49056, "name": "EUTELSAT QUANTUM", "group": "eutelsat", "lat": 0.01974448840798631, "lon": 27.50865451864547, "alt_km": 35794.37256575886, "timestamp": "2025-12-03T17:47:50.383815+00:00", "meta": {"OBJECT_NAME": "EUTELSAT QUANTUM", "OBJECT_ID": "2021-069B", "EPOCH": "2025-12-03T10:33:31.592736", "MEAN_MOTION": 1.00271746, "ECCENTRICITY": 0.0003767, "INCLINATION": 0.0178, "RA_OF_ASC_NODE": 15.1449, "ARG_OF_PERICENTER": 251.0875, "MEAN_ANOMALY": 12.3881, "EPHEMERIS_TYPE": 0, "CLASSIFICATION_TYPE": "U", "NORAD_CAT_ID": 49056, "ELEMENT_SET_NO": 999, "REV_AT_EPOCH": 1596, "BSTAR": 0, "MEAN_MOTION_DOT": 1.44e-06, "MEAN_MOTION_DDOT": 0}, "tle": {"line1": "1 49056U 21069B   25337.43994899  .00000144  00000+0  00000+0 0  9994", "line2": "2 49056   0.0178  15.1449 0003767 251.0875  12.3881  1.00271746 15969"}}, "geometry": {"type": "Point", "coordinates": [27.50865451864547, 0.01974448840798631]}}, {"type": "Feature", "properties": {"norad_id": 53765, "name": "EUTELSAT KONNECT VHTS", "group": "eutelsat", "lat": -0.038893051292111985, "lon": -17.522341448999335, "alt_km": 35791.222396428035, "timestamp": "2025-12-03T17:47:50.383827+00:00", "meta": {"OBJECT_NAME": "EUTELSAT KONNECT VHTS", "OBJECT_ID": "2022-110A", "EPOCH": "2025-12-03T05:12:28.480320", "MEAN_MOTION": 1.00269007, "ECCENTRICITY": 0.0002764, "INCLINATION": 0.0603, "RA_OF_ASC_NODE": 107.1016, "ARG_OF_PERICENTER": 123.1613, "MEAN_ANOMALY": 282.8564, "EPHEMERIS_TYPE": 0, "CLASSIFICATION_TYPE": "U", "NORAD_CAT_ID": 53765, "ELEMENT_SET_NO": 999, "REV_AT_EPOCH": 486, "BSTAR": 0, "MEAN_MOTION_DOT": 3.6e-07, "MEAN_MOTION_DDOT": 0}, "tle": {"line1": "1 53765U 22110A   25337.21699630  .00000036  00000+0  00000+0 0  9995", "line2": "2 53765   0.0603 107.1016 0002764 123.1613 282.8564  1.00269007  4867"}}, "geometry": {"type": "Point", "coordinates": [-17.522341448999335, -0.038893051292111985]}}, {"type": "Feature", "properties": {"norad_id": 54048, "name": "EUTELSAT HOTBIRD 13F", "group": "eutelsat", "lat": 0.06250091445529173, "lon": -7.234170826678862, "alt_km": 35778.064115432615, "timestamp": "2025-12-03T17:47:50.383840+00:00", "meta": {"OBJECT_NAME": "EUTELSAT HOTBIRD 13F", "OBJECT_ID": "2022-134A", "EPOCH": "2025-12-02T19:57:38.448864", "MEAN_MOTION": 1.00271371, "ECCENTRICITY": 0.00019176, "INCLINATION": 0.0542, "RA_OF_ASC_NODE": 289.0481, "ARG_OF_PERICENTER": 66.1354, "MEAN_ANOMALY": 29.1621, "EPHEMERIS_TYPE": 0, "CLASSIFICATION_TYPE": "U", "NORAD_CAT_ID": 54048, "ELEMENT_SET_NO": 999, "REV_AT_EPOCH": 1140, "BSTAR": 0, "MEAN_MOTION_DOT": 1.07e-06, "MEAN_MOTION_DDOT": 0}, "tle": {"line1": "1 54048U 22134A   25336.83169501  .00000107  00000+0  00000+0 0  9991", "line2": "2 54048   0.0542 289.0481 0001917  66.1354  29.1621  1.00271371 11408"}}, "geometry": {"type": "Point", "coordinates": [-7.234170826678862, 0.06250091445529173]}}, {"type": "Feature", "properties": {"norad_id": 54225, "name": "EUTELSAT HOTBIRD 13G", "group": "eutelsat", "lat": 0.05069117468687096, "lon": -7.234281639986304, "alt_km": 35794.80100809881, "timestamp": "2025-12-03T17:47:50.383851+00:00", "meta": {"OBJECT_NAME": "EUTELSAT HOTBIRD 13G", "OBJECT_ID": "2022-146A", "EPOCH": "2025-12-03T00:07:14.496096", "MEAN_MOTION": 1.00271219, "ECCENTRICITY": 0.00021047, "INCLINATION": 0.0475, "RA_OF_ASC_NODE": 238.4149, "ARG_OF_PERICENTER": 306.4933, "MEAN_ANOMALY": 262.0024, "EPHEMERIS_TYPE": 0, "CLASSIFICATION_TYPE": "U", "NORAD_CAT_ID": 54225, "ELEMENT_SET_NO": 999, "REV_AT_EPOCH": 549, "BSTAR": 0, "MEAN_MOTION_DOT": 1.07e-06, "MEAN_MOTION_DDOT": 0}, "tle": {"line1": "1 54225U 22146A   25337.00502889  .00000107  00000+0  00000+0 0  9991", "line2": "2 54225   0.0475 238.4149 0002104 306.4933 262.0024  1.00271219  5499"}}, "geometry": {"type": "Point", "coordinates": [-7.234281639986304, 0.05069117468687096]}}, {"type": "Feature", "properties": {"norad_id": 54259, "name": "EUTELSAT 10B", "group": "eutelsat", "lat": -0.03920103736249177, "lon": -10.227808878634843, "alt_km": 35791.31050058329, "timestamp": "2025-12-03T17:47:50.383863+00:00", "meta": {"OBJECT_NAME": "EUTELSAT 10B", "OBJECT_ID": "2022-157A", "EPOCH": "2025-12-03T04:33:38.732832", "MEAN_MOTION": 1.00268425, "ECCENTRICITY": 0.0001038, "INCLINATION": 0.0608, "RA_OF_ASC_NODE": 103.578, "ARG_OF_PERICENTER": 72.8343, "MEAN_ANOMALY": 334.2971, "EPHEMERIS_TYPE": 0, "CLASSIFICATION_TYPE": "U", "NORAD_CAT_ID": 54259, "ELEMENT_SET_NO": 999, "REV_AT_EPOCH": 1106, "BSTAR": 0, "MEAN_MOTION_DOT": 8.7e-07, "MEAN_MOTION_DDOT": 0}, "tle": {"line1": "1 54259U 22157A   25337.19003163  .00000087  00000+0  00000+0 0  9998", "line2": "2 54259   0.0608 103.5780 0001038  72.8343 334.2971  1.00268425 11069"}}, "geometry": {"type": "Point", "coordinates": [-10.227808878634843, -0.03920103736249177]}}, {"type": "Feature", "properties": {"norad_id": 59346, "name": "EUTELSAT 36D", "group": "eutelsat", "lat": 0.029864428550351717, "lon": 15.61802440007449, "alt_km": 35785.54807498176, "timestamp": "2025-12-03T17:47:50.383874+00:00", "meta": {"OBJECT_NAME": "EUTELSAT 36D", "OBJECT_ID": "2024-059A", "EPOCH": "2025-12-03T10:29:54.441024", "MEAN_MOTION": 1.00270785, "ECCENTRICITY": 6.35e-05, "INCLINATION": 0.0217, "RA_OF_ASC_NODE": 343.5943, "ARG_OF_PERICENTER": 319.0725, "MEAN_ANOMALY": 323.187, "EPHEMERIS_TYPE": 0, "CLASSIFICATION_TYPE": "U", "NORAD_CAT_ID": 59346, "ELEMENT_SET_NO": 999, "REV_AT_EPOCH": 618, "BSTAR": 0, "MEAN_MOTION_DOT": 0, "MEAN_MOTION_DDOT": 0}, "tle": {"line1": "1 59346U 24059A   25337.43743566  .00000000  00000+0  00000+0 0  9993", "line2": "2 59346   0.0217 343.5943 0000635 319.0725 323.1870  1.00270785  6180"}}, "geometry": {"type": "Point", "coordinates": [15.61802440007449, 0.029864428550351717]}}]}